NORAD_CAT_ID,OBJECT_NAME,OBJECT_TYPE,EPOCH,MEAN_MOTION,ECCENTRICITY,INCLINATION,RA_OF_ASC_NODE,ARG_OF_PERICENTER,MEAN_ANOMALY,BSTAR,MEAN_MOTION_DOT,MEAN_MOTION_DDOT,TLE_LINE0,TLE_LINE1,TLE_LINE2,SEMIMAJOR_AXIS,PERIOD,APOGEE,PERIGEE,DECAYED
50827.0,STARLINK-3329,PAYLOAD,2024-04-15 19:41:34,15.08847909,0.0001715,53.2205,39.5244,98.0316,262.087,0.00010092,1.319e-05,0.0,0 STARLINK-3329,1 50827U 22001AA  24106.82054090  .00001319  00000-0  10092-3 0  9997,2 50827  53.2205  39.5244 0001715  98.0316 262.0870 15.08847909127072,6917.856,95.437,540.908,538.535,0.0
50827.0,STARLINK-3329,PAYLOAD,2024-04-16 02:03:05,15.08864647,0.0001577,53.221,38.339,101.056,259.061,0.0002107,3.069e-05,0.0,0 STARLINK-3329,1 50827U 22001AA  24107.08548558  .00003069  00000-0  21070-3 0  9995,2 50827  53.2210  38.3390 0001577 101.0560 259.0610 15.08864647127110,6917.805,95.436,540.761,538.579,0.0
50827.0,STARLINK-3329,PAYLOAD,2024-04-16 05:13:51,15.08867915,0.0001737,53.2208,37.7408,112.0312,248.0865,0.00026452,3.927e-05,0.0,0 STARLINK-3329,1 50827U 22001AA  24107.21796072  .00003927  00000-0  26452-3 0  9998,2 50827  53.2208  37.7408 0001737 112.0312 248.0865 15.08867915125866,6917.795,95.436,540.862,538.458,0.0
50827.0,STARLINK-3329,PAYLOAD,2024-04-16 22:43:07,15.08821076,0.0001449,53.2193,34.4763,89.273,270.8428,0.00065094,0.00010082,0.0,0 STARLINK-3329,1 50827U 22001AA  24107.94661592  .00010082  00000-0  65094-3 0  9991,2 50827  53.2193  34.4763 0001449  89.2730 270.8428 15.08821076125974,6917.938,95.439,540.806,538.801,0.0
50827.0,STARLINK-3329,PAYLOAD,2024-04-17 00:18:30,15.08823052,0.0001512,53.2194,34.178,83.9371,276.1794,0.00069119,0.00010724,0.0,0 STARLINK-3329,1 50827U 22001AA  24108.01285457  .00010724  00000-0  69119-3 0  9997,2 50827  53.2194  34.1780 0001512  83.9371 276.1794 15.08823052127258,6917.932,95.439,540.843,538.751,0.0
50827.0,STARLINK-3329,PAYLOAD,2024-04-17 22:33:55,15.08843754,0.00015,53.2191,30.0146,111.599,248.5162,-0.00014029,-2.52e-05,0.0,0 STARLINK-3329,1 50827U 22001AA  24108.94022670 -.00002520  00000-0 -14029-3 0  9992,2 50827  53.2191  30.0146 0001500 111.5990 248.5162 15.08843754127396,6917.869,95.437,540.772,538.696,0.0
50827.0,STARLINK-3329,PAYLOAD,2024-04-18 00:09:18,15.0884043,0.0001536,53.2181,29.7165,111.4924,248.6232,-0.00027331,-4.635e-05,0.0,0 STARLINK-3329,1 50827U 22001AA  24109.00645940 -.00004635  00000-0 -27331-3 0  9990,2 50827  53.2181  29.7165 0001536 111.4924 248.6232 15.08840430126134,6917.879,95.438,540.807,538.681,0.0
50827.0,STARLINK-3329,PAYLOAD,2024-04-19 00:00:05,15.08839716,0.0001597,53.2182,25.2565,116.3403,243.7753,-0.00016515,-2.915e-05,0.0,0 STARLINK-3329,1 50827U 22001AA  24110.00006199 -.00002915  00000-0 -16515-3 0  9990,2 50827  53.2182  25.2565 0001597 116.3403 243.7753 15.08839716127559,6917.881,95.438,540.851,538.641,0.0
50827.0,STARLINK-3329,PAYLOAD,2024-04-19 22:15:28,15.08851449,0.0001486,53.2189,21.0962,110.6058,249.5093,0.00038376,5.827e-05,0.0,0 STARLINK-3329,1 50827U 22001AA  24110.92741769  .00005827  00000-0  38376-3 0  9992,2 50827  53.2189  21.0962 0001486 110.6058 249.5093 15.08851449126424,6917.845,95.437,540.738,538.682,0.0
50827.0,STARLINK-3329,PAYLOAD,2024-04-20 03:01:37,15.08883719,0.0001213,53.2179,20.1917,115.173,244.9388,0.00093919,0.00014709,0.0,0 STARLINK-3329,1 50827U 22001AA  24111.12612542  .00014709  00000-0  93919-3 0  9994,2 50827  53.2179  20.1917 0001213 115.1730 244.9388 15.08883719127723,6917.747,95.435,540.451,538.773,0.0
50827.0,STARLINK-3329,PAYLOAD,2024-04-20 17:20:06,15.08843446,0.0001878,53.2181,17.529,73.3842,286.7356,-9.8743e-05,-1.859e-05,0.0,0 STARLINK-3329,1 50827U 22001AA  24111.72229895 -.00001859  00000-0 -98743-4 0  9990,2 50827  53.2181  17.5290 0001878  73.3842 286.7356 15.08843446127818,6917.87,95.437,541.034,538.436,0.0
50827.0,STARLINK-3329,PAYLOAD,2024-04-21 01:17:02,15.08827178,0.0001284,53.2186,16.0328,96.8743,263.2395,-0.00033245,-5.573e-05,0.0,0 STARLINK-3329,1 50827U 22001AA  24112.05350559 -.00005573  00000-0 -33245-3 0  9991,2 50827  53.2186  16.0328 0001284  96.8743 263.2395 15.08827178127862,6917.92,95.438,540.673,538.896,0.0
50827.0,STARLINK-3329,PAYLOAD,2024-04-21 21:57:03,15.08836664,0.0001506,53.2175,12.18,78.3735,281.7426,-0.00010554,-1.967e-05,0.0,0 STARLINK-3329,1 50827U 22001AA  24112.91462751 -.00001967  00000-0 -10554-3 0  9995,2 50827  53.2175  12.1800 0001506  78.3735 281.7426 15.08836664126729,6917.891,95.438,540.797,538.714,0.0
50827.0,STARLINK-3329,PAYLOAD,2024-04-22 02:43:12,15.08862918,0.0001656,53.2198,11.2743,118.538,241.5779,0.00051293,7.89e-05,0.0,0 STARLINK-3329,1 50827U 22001AA  24113.11333793  .00007890  00000-0  51293-3 0  9995,2 50827  53.2198  11.2743 0001656 118.5380 241.5779 15.08862918128020,6917.81,95.436,540.821,538.53,0.0
50827.0,STARLINK-3329,PAYLOAD,2024-04-22 20:12:28,15.08838324,0.0001394,53.219,8.0063,102.1279,257.987,0.00031167,4.676e-05,0.0,0 STARLINK-3329,1 50827U 22001AA  24113.84199143  .00004676  00000-0  31167-3 0  9991,2 50827  53.2190   8.0063 0001394 102.1279 257.9870 15.08838324128135,6917.886,95.438,540.715,538.786,0.0
50827.0,STARLINK-3329,PAYLOAD,2024-04-22 21:47:51,15.08841553,0.0001551,53.2194,7.7093,93.0919,267.0251,0.00035497,5.366e-05,0.0,0 STARLINK-3329,1 50827U 22001AA  24113.90823103  .00005366  00000-0  35497-3 0  9995,2 50827  53.2194   7.7093 0001551  93.0919 267.0251 15.08841553126874,6917.876,95.437,540.814,538.668,0.0
50827.0,STARLINK-3329,PAYLOAD,2024-04-22 23:23:14,15.08845265,0.000175,53.2191,7.4118,102.0152,258.1037,0.00039791,6.051e-05,0.0,0 STARLINK-3329,1 50827U 22001AA  24113.97446939  .00006051  00000-0  39791-3 0  9993,2 50827  53.2191   7.4118 0001750 102.0152 258.1037 15.08845265126885,6917.864,95.437,540.94,538.519,0.0
50827.0,STARLINK-3329,PAYLOAD,2024-04-23 21:38:37,15.08843749,0.0001626,53.219,3.2479,106.3781,253.739,-5.977e-05,-1.239e-05,0.0,0 STARLINK-3329,1 50827U 22001AA  24114.90182624 -.00001239  00000-0 -59770-4 0  9990,2 50827  53.2190   3.2479 0001626 106.3781 253.7390 15.08843749127020,6917.869,95.437,540.859,538.609,0.0
50827.0,STARLINK-3329,PAYLOAD,2024-04-24 02:24:47,15.08847972,0.0001525,53.2188,2.3544,102.6662,257.45,0.0001118,1.492e-05,0.0,0 STARLINK-3329,1 50827U 22001AA  24115.10054496  .00001492  00000-0  11180-3 0  9999,2 50827  53.2188   2.3544 0001525 102.6662 257.4500 15.08847972128325,6917.856,95.437,540.776,538.666,0.0
50827.0,STARLINK-3329,PAYLOAD,2024-04-24 19:54:01,15.088389,0.000142,53.2179,359.079,111.5333,248.581,0.0001133,1.516e-05,0.0,0 STARLINK-3329,1 50827U 22001AA  24115.82918893  .00001516  00000-0  11330-3 0  9992,2 50827  53.2179 359.0790 0001420 111.5333 248.5810 15.08838900128436,6917.884,95.438,540.731,538.766,0.0
50827.0,STARLINK-3329,PAYLOAD,2024-04-24 21:29:24,15.08841589,0.0001479,53.2182,358.7817,112.9092,247.2056,9.1228e-05,1.164e-05,0.0,0 STARLINK-3329,1 50827U 22001AA  24115.89542814  .00001164  00000-0  91228-4 0  9999,2 50827  53.2182 358.7817 0001479 112.9092 247.2056 15.08841589127172,6917.876,95.437,540.764,538.717,0.0
50827.0,STARLINK-3329,PAYLOAD,2024-04-25 02:15:34,15.08845051,0.0001477,53.2188,357.89,112.9882,247.1267,0.00020323,2.948e-05,0.0,0 STARLINK-3329,1 50827U 22001AA  24116.09414741  .00002948  00000-0  20323-3 0  9997,2 50827  53.2188 357.8900 0001477 112.9882 247.1267 15.08845051127201,6917.865,95.437,540.752,538.708,0.0
50827.0,STARLINK-3329,PAYLOAD,2024-04-25 21:20:12,15.08821805,0.0001418,53.2187,354.3226,86.9045,273.211,-0.00045219,-7.474e-05,0.0,0 STARLINK-3329,1 50827U 22001AA  24116.88902864 -.00007474  00000-0 -45219-3 0  9994,2 50827  53.2187 354.3226 0001418  86.9045 273.2110 15.08821805128590,6917.936,95.439,540.782,538.82,0.0
50827.0,STARLINK-3329,PAYLOAD,2024-04-26 08:27:54,15.0882404,0.0001402,53.2189,352.2438,71.365,288.7494,-0.00032959,-5.527e-05,0.0,0 STARLINK-3329,1 50827U 22001AA  24117.35271132 -.00005527  00000-0 -32959-3 0  9998,2 50827  53.2189 352.2438 0001402  71.3650 288.7494 15.08824040127394,6917.929,95.439,540.764,538.824,0.0
50827.0,STARLINK-3329,PAYLOAD,2024-04-26 19:35:36,15.08836117,8.74e-05,53.2164,350.1624,63.1054,297.0027,-9.1755e-05,-1.747e-05,0.0,0 STARLINK-3329,1 50827U 22001AA  24117.81639090 -.00001747  00000-0 -91755-4 0  9990,2 50827  53.2164 350.1624 0000874  63.1054 297.0027 15.08836117128732,6917.892,95.438,540.362,539.153,0.0
50827.0,STARLINK-3329,PAYLOAD,2024-04-27 00:21:44,15.08855476,0.0001087,53.2177,349.2718,99.4684,260.6431,0.0002647,3.929e-05,0.0,0 STARLINK-3329,1 50827U 22001AA  24118.01509979  .00003929  00000-0  26470-3 0  9998,2 50827  53.2177 349.2718 0001087  99.4684 260.6431 15.08855476128764,6917.833,95.437,540.45,538.946,0.0
50827.0,STARLINK-3329,PAYLOAD,2024-04-27 08:18:40,15.08839677,0.0001036,53.218,347.7861,104.7067,255.404,2.1923e-05,6.1e-07,0.0,0 STARLINK-3329,1 50827U 22001AA  24118.34630654  .00000061  00000-0  21923-4 0  9992,2 50827  53.2180 347.7861 0001036 104.7067 255.4040 15.08839677128818,6917.881,95.438,540.463,539.03,0.0
50827.0,STARLINK-3329,PAYLOAD,2024-04-27 21:01:46,15.08837847,0.0001259,53.2173,345.4107,96.4618,263.6518,0.00033586,5.061e-05,0.0,0 STARLINK-3329,1 50827U 22001AA  24118.87623310  .00005061  00000-0  33586-3 0  9993,2 50827  53.2173 345.4107 0001259  96.4618 263.6518 15.08837847127620,6917.887,95.438,540.623,538.881,0.0
50827.0,STARLINK-3329,PAYLOAD,2024-04-28 00:12:32,15.08848251,0.0001539,53.2192,344.815,97.135,262.9817,0.00051628,7.94e-05,0.0,0 STARLINK-3329,1 50827U 22001AA  24119.00871054  .00007940  00000-0  51628-3 0  9994,2 50827  53.2192 344.8150 0001539  97.1350 262.9817 15.08848251127641,6917.855,95.437,540.785,538.656,0.0
50827.0,STARLINK-3329,PAYLOAD,2024-04-28 20:52:33,15.08837252,0.0001794,53.2186,340.9464,119.7979,240.3192,-7.022e-05,-1.405e-05,0.0,0 STARLINK-3329,1 50827U 22001AA  24119.86983351 -.00001405  00000-0 -70220-4 0  9994,2 50827  53.2186 340.9464 0001794 119.7979 240.3192 15.08837252129041,6917.889,95.438,540.995,538.513,0.0
